INTELSAT 23 (IS-23)     
1 38867U 12057A   26178.86701539 -.00000273  00000+0  00000+0 0  9991
2 38867   0.0124  39.1569 0000289 122.1463  13.7803  1.00271072 50065
FM-6                    
1 39360U 13058A   26178.92583299 -.00000004  00000+0  00000+0 0  9992
2 39360   0.0180  48.4850 0001671 131.3868 313.1504  1.00271034 46180
INTELSAT 30 (IS-30)     
1 40271U 14062A   26178.64475434 -.00000139  00000+0  00000+0 0  9990
2 40271   0.0227  47.3154 0001689 344.8347  20.6625  1.00270924  6897
DIRECTV 14              
1 40333U 14078B   26178.59093260 -.00000114  00000+0  00000+0 0  9996
2 40333   0.0111  24.5918 0000260  19.7028 344.9022  1.00270992 42147
DIRECTV 15              
1 40663U 15026A   26178.57197899 -.00000091  00000+0  00000+0 0  9991
2 40663   0.0151  55.2001 0000598 350.9969 332.5232  1.00270184 40562
SKY MEXICO-1            
1 40664U 15026B   26178.93319968  .00000000  00000+0  00000+0 0  9994
2 40664   0.0278  19.3510 0002638  94.8310  59.0137  1.00269637 40566
INTELSAT 34 (IS-34)     
1 40874U 15039A   26178.43883013 -.00000274  00000+0  00000+0 0  9997
2 40874   0.0112   3.8798 0000588  37.0581 337.0938  1.00274669 39739
INTELSAT 31 (IS-31)     
1 41581U 16035A   26178.64475434 -.00000139  00000+0  00000+0 0  9997
2 41581   0.0186 278.1016 0000657 353.6461 141.0642  1.00270265 36782
INTELSAT 36 (IS-36)     
1 41747U 16053A   26178.17823589 -.00000011  00000+0  00000+0 0  9996
2 41747   0.0110   8.7270 0002427 344.1740  55.0639  1.00263988 36058
INTELSAT 32E (IS-32E)   
1 41945U 17007B   26178.72645328 -.00000257  00000+0  00000+0 0  9992
2 41945   0.0130 335.1837 0000822  22.4501 136.5419  1.00272230 34334
INTELSAT 35E (IS-35E)   
1 42818U 17041A   26178.79947166  .00000000  00000+0  00000+0 0  9997
2 42818   0.0289  29.8995 0002382  68.9371  70.3884  1.00268878 32921
INTELSAT 37E (IS-37E)   
1 42950U 17059A   26178.94518200 -.00000129  00000+0  00000+0 0  9996
2 42950   0.0187  25.7039 0002903  69.3435 143.2670  1.00271401 32170
AZERSPACE 2 (IS-38)     
1 43632U 18074A   26178.53002885  .00000000  00000+0  00000+0 0  9991
2 43632   0.0279  19.6570 0001781  79.3478  52.5580  1.00271494 28554
HORIZONS-3E             
1 43633U 18074B   26178.62856541 -.00000019  00000+0  00000+0 0  9999
2 43633   0.0058 234.4766 0000409  56.0460  20.5088  1.00271755 28449
AT&T T-16               
1 44333U 19034A   26178.64362767 -.00000104  00000+0  00000+0 0  9993
2 44333   0.0154  55.8037 0000705 287.5863  63.2117  1.00271331 25733
INTELSAT 39 (IS-39)     
1 44476U 19049B   26178.73332889  .00000047  00000+0  00000+0 0  9994
2 44476   0.0044  26.0005 0000205 300.2426 275.5398  1.00263168 25230
GALAXY 30 (G-30)        
1 46114U 20056C   26178.71022920  .00000000  00000+0  00000+0 0  9994
2 46114   0.0287  26.0682 0002290  68.9553 311.4613  1.00271032 21398
GALAXY 33 (G-33)        
1 54026U 22128A   26178.70858252  .00000091  00000+0  00000+0 0  9991
2 54026   0.0087 333.9077 0002074 118.7716 305.2235  1.00271828 13845
GALAXY 34 (G-34)        
1 54027U 22128B   26178.63816764  .00000070  00000+0  00000+0 0  9993
2 54027   0.0109  47.2821 0002037  54.1420 275.0568  1.00275912 14018
GALAXY 31 (G-31)        
1 54243U 22153A   26178.59931073  .00000000  00000+0  00000+0 0  9990
2 54243   0.0211  30.6790 0001646  71.5176 268.2581  1.00270084  7239
GALAXY 32 (G-32)        
1 54244U 22153B   26178.57440567 -.00000163  00000+0  00000+0 0  9993
2 54244   0.0141  35.2908 0002074  12.2647 343.9156  1.00271878 13244
GALAXY 35 (G-35)        
1 54741U 22170A   26178.93042633  .00000000  00000+0  00000+0 0  9995
2 54741   0.0208  22.1820 0002216  74.6293  61.0652  1.00269366 13007
GALAXY 36 (G-36)        
1 54742U 22170B   26178.93120633 -.00000173  00000+0  00000+0 0  9995
2 54742   0.0347 115.3952 0002895 334.7360  72.1392  1.00271357 12883
GALAXY 37 (G-37)        
1 57493U 23112A   26178.63851431  .00000060  00000+0  00000+0 0  9996
2 57493   0.0170  56.5620 0002254  37.1757 284.8739  1.00272133 10646
