OBJECT_NAME,OBJECT_ID,EPOCH,MEAN_MOTION,ECCENTRICITY,INCLINATION,RA_OF_ASC_NODE,ARG_OF_PERICENTER,MEAN_ANOMALY,EPHEMERIS_TYPE,CLASSIFICATION_TYPE,NORAD_CAT_ID,ELEMENT_SET_NO,REV_AT_EPOCH,BSTAR,MEAN_MOTION_DOT,MEAN_MOTION_DDOT
INTELSAT 23 (IS-23),2012-057A,2026-06-27T20:48:30.129696,1.00271072,.00002894,0.0124,39.1569,122.1463,13.7803,0,U,38867,999,5006,0,-.273E-5,0
FM-6,2013-058A,2026-06-27T22:13:11.970336,1.00271034,.00016711,0.0180,48.4850,131.3868,313.1504,0,U,39360,999,4618,0,-.4E-7,0
INTELSAT 30 (IS-30),2014-062A,2026-06-27T15:28:26.774976,1.00270924,.00016892,0.0227,47.3154,344.8347,20.6625,0,U,40271,999,689,0,-.139E-5,0
DIRECTV 14,2014-078B,2026-06-27T14:10:56.576640,1.00270992,.00002601,0.0111,24.5918,19.7028,344.9022,0,U,40333,999,4214,0,-.114E-5,0
DIRECTV 15,2015-026A,2026-06-27T13:43:38.984736,1.00270184,.00005985,0.0151,55.2001,350.9969,332.5232,0,U,40663,999,4056,0,-.91E-6,0
SKY MEXICO-1,2015-026B,2026-06-27T22:23:48.452352,1.00269637,.00026384,0.0278,19.3510,94.8310,59.0137,0,U,40664,999,4056,0,0,0
INTELSAT 34 (IS-34),2015-039A,2026-06-27T10:31:54.923232,1.00274669,.00005883,0.0112,3.8798,37.0581,337.0938,0,U,40874,999,3973,0,-.274E-5,0
INTELSAT 31 (IS-31),2016-035A,2026-06-27T15:28:26.774976,1.00270265,.00006577,0.0186,278.1016,353.6461,141.0642,0,U,41581,999,3678,0,-.139E-5,0
INTELSAT 36 (IS-36),2016-053A,2026-06-27T04:16:39.580896,1.00263988,.0002427,0.0110,8.7270,344.1740,55.0639,0,U,41747,999,3605,0,-.11E-6,0
INTELSAT 32E (IS-32E),2017-007B,2026-06-27T17:26:05.563392,1.00272230,.0000822,0.0130,335.1837,22.4501,136.5419,0,U,41945,999,3433,0,-.257E-5,0
INTELSAT 35E (IS-35E),2017-041A,2026-06-27T19:11:14.351424,1.00268878,.00023823,0.0289,29.8995,68.9371,70.3884,0,U,42818,999,3292,0,0,0
INTELSAT 37E (IS-37E),2017-059A,2026-06-27T22:41:03.724800,1.00271401,.00029032,0.0187,25.7039,69.3435,143.2670,0,U,42950,999,3217,0,-.129E-5,0
AZERSPACE 2 (IS-38),2018-074A,2026-06-27T12:43:14.492640,1.00271494,.00017819,0.0279,19.6570,79.3478,52.5580,0,U,43632,999,2855,0,0,0
HORIZONS-3E,2018-074B,2026-06-27T15:05:08.051424,1.00271755,.0000409,0.0058,234.4766,56.0460,20.5088,0,U,43633,999,2844,0,-.19E-6,0
AT&T T-16,2019-034A,2026-06-27T15:26:49.430688,1.00271331,.00007056,0.0154,55.8037,287.5863,63.2117,0,U,44333,999,2573,0,-.104E-5,0
INTELSAT 39 (IS-39),2019-049B,2026-06-27T17:35:59.616096,1.00263168,.00002055,0.0044,26.0005,300.2426,275.5398,0,U,44476,999,2523,0,.47E-6,0
GALAXY 30 (G-30),2020-056C,2026-06-27T17:02:43.802880,1.00271032,.00022909,0.0287,26.0682,68.9553,311.4613,0,U,46114,999,2139,0,0,0
GALAXY 33 (G-33),2022-128A,2026-06-27T17:00:21.529728,1.00271828,.00020748,0.0087,333.9077,118.7716,305.2235,0,U,54026,999,1384,0,.91E-6,0
GALAXY 34 (G-34),2022-128B,2026-06-27T15:18:57.684096,1.00275912,.00020371,0.0109,47.2821,54.1420,275.0568,0,U,54027,999,1401,0,.7E-6,0
GALAXY 31 (G-31),2022-153A,2026-06-27T14:23:00.447072,1.00270084,.00016465,0.0211,30.6790,71.5176,268.2581,0,U,54243,999,723,0,0,0
GALAXY 32 (G-32),2022-153B,2026-06-27T13:47:08.649888,1.00271878,.00020749,0.0141,35.2908,12.2647,343.9156,0,U,54244,999,1324,0,-.163E-5,0
GALAXY 35 (G-35),2022-170A,2026-06-27T22:19:48.834912,1.00269366,.00022167,0.0208,22.1820,74.6293,61.0652,0,U,54741,999,1300,0,0,0
GALAXY 36 (G-36),2022-170B,2026-06-27T22:20:56.226912,1.00271357,.00028951,0.0347,115.3952,334.7360,72.1392,0,U,54742,999,1288,0,-.173E-5,0
GALAXY 37 (G-37),2023-112A,2026-06-27T15:19:27.636384,1.00272133,.00022549,0.0170,56.5620,37.1757,284.8739,0,U,57493,999,1064,0,.6E-6,0
